start=new Date('2022-05-01T00:00:00.000Z').valueOf();
sats=[{"REV_AT_EPOCH":"5405","EPOCH":"2022-04-30T03:48:48.775104","ARG_OF_PERICENTER":"61.6698","CLASSIFICATION_TYPE":"U","COUNTRY_CODE":"US","MEAN_ELEMENT_THEORY":"SGP4","OBJECT_TYPE":"PAYLOAD","MEAN_ANOMALY":"298.4449","EPHEMERIS_TYPE":"0","CENTER_NAME":"EARTH","INCLINATION":"53.0563","LAUNCH_DATE":"2021-05-09","FILE":"3422880","MEAN_MOTION_DDOT":"0.0000000000000","SITE":"AFETR","REF_FRAME":"TEME","ECCENTRICITY":"0.00015710","OBJECT_NAME":"STARLINK-2687","MEAN_MOTION_DOT":"-0.00001402","SEMIMAJOR_AXIS":"6925.379","PERIAPSIS":"546.156","MEAN_MOTION":"15.06390094","DECAY_DATE":null,"TIME_SYSTEM":"UTC","RCS_SIZE":"LARGE","TLE_LINE2":"2 48466  53.0563  39.2585 0001571  61.6698 298.4449 15.06390094 54055","BSTAR":"-0.00007523000000","ELEMENT_SET_NO":"999","PERIOD":"95.593","RA_OF_ASC_NODE":"39.2585","GP_ID":"202354218","TLE_LINE1":"1 48466U 21040AQ  22120.15889786 -.00001402  00000-0 -75230-4 0  9994","OBJECT_ID":"2021-040AQ","NORAD_CAT_ID":"48466","APOAPSIS":"548.332"},{"SEMIMAJOR_AXIS":"6925.410","MEAN_MOTION_DOT":"0.00004207","MEAN_MOTION":"15.06379816","TIME_SYSTEM":"UTC","DECAY_DATE":null,"PERIAPSIS":"546.136","RCS_SIZE":"LARGE","BSTAR":"0.00030129000000","TLE_LINE2":"2 48467  53.0562  36.4581 0001645  58.7484 301.3666 15.06379816 54146","RA_OF_ASC_NODE":"36.4581","GP_ID":"202390832","PERIOD":"95.593","ELEMENT_SET_NO":"999","TLE_LINE1":"1 48467U 21040AR  22120.78183237  .00004207  00000-0  30129-3 0  9993","OBJECT_ID":"2021-040AR","APOAPSIS":"548.415","NORAD_CAT_ID":"48467","EPOCH":"2022-04-30T18:45:50.316768","REV_AT_EPOCH":"5414","ARG_OF_PERICENTER":"58.7484","CLASSIFICATION_TYPE":"U","COUNTRY_CODE":"US","MEAN_ANOMALY":"301.3666","OBJECT_TYPE":"PAYLOAD","MEAN_ELEMENT_THEORY":"SGP4","CENTER_NAME":"EARTH","EPHEMERIS_TYPE":"0","INCLINATION":"53.0562","MEAN_MOTION_DDOT":"0.0000000000000","FILE":"3423346","LAUNCH_DATE":"2021-05-09","REF_FRAME":"TEME","SITE":"AFETR","ECCENTRICITY":"0.00016450","OBJECT_NAME":"STARLINK-2659"},{"SITE":"AFETR","REF_FRAME":"TEME","ECCENTRICITY":"0.00017130","OBJECT_NAME":"STARLINK-2685","CENTER_NAME":"EARTH","EPHEMERIS_TYPE":"0","INCLINATION":"53.0564","LAUNCH_DATE":"2021-05-09","FILE":"3423201","MEAN_MOTION_DDOT":"0.0000000000000","ARG_OF_PERICENTER":"69.7953","CLASSIFICATION_TYPE":"U","COUNTRY_CODE":"US","OBJECT_TYPE":"PAYLOAD","MEAN_ELEMENT_THEORY":"SGP4","MEAN_ANOMALY":"290.3220","REV_AT_EPOCH":"5537","EPOCH":"2022-04-30T11:57:08.215200","OBJECT_ID":"2021-040AS","NORAD_CAT_ID":"48468","APOAPSIS":"548.467","PERIOD":"95.594","ELEMENT_SET_NO":"999","RA_OF_ASC_NODE":"37.7259","GP_ID":"202366356","TLE_LINE1":"1 48468U 21040AS  22120.49801175  .00001306  00000-0  10662-3 0  9997","RCS_SIZE":"LARGE","BSTAR":"0.00010662000000","TLE_LINE2":"2 48468  53.0564  37.7259 0001713  69.7953 290.3220 15.06378138 55379","MEAN_MOTION_DOT":"0.00001306","SEMIMAJOR_AXIS":"6925.416","PERIAPSIS":"546.094","MEAN_MOTION":"15.06378138","TIME_SYSTEM":"UTC","DECAY_DATE":null},{"OBJECT_NAME":"STARLINK-2661","ECCENTRICITY":"0.00015150","SITE":"AFETR","REF_FRAME":"TEME","FILE":"3423346","LAUNCH_DATE":"2021-05-09","MEAN_MOTION_DDOT":"0.0000000000000","INCLINATION":"53.0573","CENTER_NAME":"EARTH","EPHEMERIS_TYPE":"0","OBJECT_TYPE":"PAYLOAD","MEAN_ANOMALY":"265.6917","MEAN_ELEMENT_THEORY":"SGP4","COUNTRY_CODE":"US","ARG_OF_PERICENTER":"94.4245","CLASSIFICATION_TYPE":"U","REV_AT_EPOCH":"5414","EPOCH":"2022-04-30T18:40:31.771200","NORAD_CAT_ID":"48469","APOAPSIS":"548.277","OBJECT_ID":"2021-040AT","TLE_LINE1":"1 48469U 21040AT  22120.77814550 -.00002361  00000-0 -13968-3 0  9996","PERIOD":"95.592","ELEMENT_SET_NO":"999","GP_ID":"202391834","RA_OF_ASC_NODE":"36.4779","BSTAR":"-0.00013968000000","TLE_LINE2":"2 48469  53.0573  36.4779 0001515  94.4245 265.6917 15.06395407 54142","RCS_SIZE":"LARGE","PERIAPSIS":"546.178","TIME_SYSTEM":"UTC","DECAY_DATE":null,"MEAN_MOTION":"15.06395407","MEAN_MOTION_DOT":"-0.00002361","SEMIMAJOR_AXIS":"6925.363"},{"EPOCH":"2022-04-30T12:13:03.143424","REV_AT_EPOCH":"5409","COUNTRY_CODE":"US","OBJECT_TYPE":"PAYLOAD","MEAN_ELEMENT_THEORY":"SGP4","MEAN_ANOMALY":"309.1517","CLASSIFICATION_TYPE":"U","ARG_OF_PERICENTER":"50.9616","MEAN_MOTION_DDOT":"0.0000000000000","FILE":"3422880","LAUNCH_DATE":"2021-05-09","EPHEMERIS_TYPE":"0","CENTER_NAME":"EARTH","INCLINATION":"53.0570","OBJECT_NAME":"STARLINK-2675","ECCENTRICITY":"0.00016250","REF_FRAME":"TEME","SITE":"AFETR","MEAN_MOTION":"15.06386896","DECAY_DATE":null,"TIME_SYSTEM":"UTC","PERIAPSIS":"546.128","SEMIMAJOR_AXIS":"6925.389","MEAN_MOTION_DOT":"-0.00002632","RCS_SIZE":"LARGE","TLE_LINE2":"2 48470  53.0570  37.6847 0001625  50.9616 309.1517 15.06386896 54097","BSTAR":"-0.00015791000000","TLE_LINE1":"1 48470U 21040AU  22120.50906416 -.00002632  00000-0 -15791-3 0  9999","RA_OF_ASC_NODE":"37.6847","GP_ID":"202354718","ELEMENT_SET_NO":"999","PERIOD":"95.593","APOAPSIS":"548.379","NORAD_CAT_ID":"48470","OBJECT_ID":"2021-040AU"},{"CENTER_NAME":"EARTH","EPHEMERIS_TYPE":"0","INCLINATION":"53.0555","MEAN_MOTION_DDOT":"0.0000000000000","FILE":"3423346","LAUNCH_DATE":"2021-05-09","REF_FRAME":"TEME","SITE":"AFETR","OBJECT_NAME":"STARLINK-2684","ECCENTRICITY":"0.00018050","EPOCH":"2022-04-30T21:35:40.693920","REV_AT_EPOCH":"5415","ARG_OF_PERICENTER":"53.9032","CLASSIFICATION_TYPE":"U","COUNTRY_CODE":"US","MEAN_ELEMENT_THEORY":"SGP4","OBJECT_TYPE":"PAYLOAD","MEAN_ANOMALY":"306.2124","RA_OF_ASC_NODE":"35.9238","GP_ID":"202390332","PERIOD":"95.592","ELEMENT_SET_NO":"999","TLE_LINE1":"1 48471U 21040AV  22120.89977655 -.00002635  00000-0 -15806-3 0  9995","OBJECT_ID":"2021-040AV","APOAPSIS":"548.464","NORAD_CAT_ID":"48471","SEMIMAJOR_AXIS":"6925.349","MEAN_MOTION_DOT":"-0.00002635","MEAN_MOTION":"15.06400005","DECAY_DATE":null,"TIME_SYSTEM":"UTC","PERIAPSIS":"545.964","RCS_SIZE":"LARGE","BSTAR":"-0.00015806000000","TLE_LINE2":"2 48471  53.0555  35.9238 0001805  53.9032 306.2124 15.06400005 54159"},{"EPOCH":"2022-04-30T11:35:54.994560","REV_AT_EPOCH":"5408","MEAN_ANOMALY":"307.9826","OBJECT_TYPE":"PAYLOAD","MEAN_ELEMENT_THEORY":"SGP4","COUNTRY_CODE":"US","CLASSIFICATION_TYPE":"U","ARG_OF_PERICENTER":"52.1314","MEAN_MOTION_DDOT":"0.0000000000000","FILE":"3422880","LAUNCH_DATE":"2021-05-09","INCLINATION":"53.0572","EPHEMERIS_TYPE":"0","CENTER_NAME":"EARTH","OBJECT_NAME":"STARLINK-2722","ECCENTRICITY":"0.00016710","REF_FRAME":"TEME","SITE":"AFETR","TIME_SYSTEM":"UTC","DECAY_DATE":null,"MEAN_MOTION":"15.06388037","PERIAPSIS":"546.093","MEAN_MOTION_DOT":"-0.00001561","SEMIMAJOR_AXIS":"6925.385","TLE_LINE2":"2 48472  53.0572  37.7915 0001671  52.1314 307.9826 15.06388037 54085","BSTAR":"-0.00008597600000","RCS_SIZE":"LARGE","TLE_LINE1":"1 48472U 21040AW  22120.48327540 -.00001561  00000-0 -85976-4 0  9996","GP_ID":"202355714","RA_OF_ASC_NODE":"37.7915","PERIOD":"95.593","ELEMENT_SET_NO":"999","APOAPSIS":"548.407","NORAD_CAT_ID":"48472","OBJECT_ID":"2021-040AW"},{"OBJECT_ID":"2021-040AX","NORAD_CAT_ID":"48473","APOAPSIS":"548.589","ELEMENT_SET_NO":"999","PERIOD":"95.593","RA_OF_ASC_NODE":"36.4355","GP_ID":"202391334","TLE_LINE1":"1 48473U 21040AX  22120.78552698 -.00003013  00000-0 -18351-3 0  9990","RCS_SIZE":"MEDIUM","BSTAR":"-0.00018351000000","TLE_LINE2":"2 48473  53.0550  36.4355 0001932  42.8058 317.3081 15.06387931 54133","MEAN_MOTION_DOT":"-0.00003013","SEMIMAJOR_AXIS":"6925.386","PERIAPSIS":"545.913","MEAN_MOTION":"15.06387931","TIME_SYSTEM":"UTC","DECAY_DATE":null,"SITE":"AFETR","REF_FRAME":"TEME","OBJECT_NAME":"STARLINK-2658","ECCENTRICITY":"0.00019320","CENTER_NAME":"EARTH","EPHEMERIS_TYPE":"0","INCLINATION":"53.0550","LAUNCH_DATE":"2021-05-09","FILE":"3423346","MEAN_MOTION_DDOT":"0.0000000000000","CLASSIFICATION_TYPE":"U","ARG_OF_PERICENTER":"42.8058","COUNTRY_CODE":"US","OBJECT_TYPE":"PAYLOAD","MEAN_ANOMALY":"317.3081","MEAN_ELEMENT_THEORY":"SGP4","REV_AT_EPOCH":"5413","EPOCH":"2022-04-30T18:51:09.531072"},{"CLASSIFICATION_TYPE":"U","ARG_OF_PERICENTER":"72.6837","COUNTRY_CODE":"US","MEAN_ELEMENT_THEORY":"SGP4","OBJECT_TYPE":"PAYLOAD","MEAN_ANOMALY":"287.4306","REV_AT_EPOCH":"5536","EPOCH":"2022-04-30T11:41:13.833888","SITE":"AFETR","REF_FRAME":"TEME","OBJECT_NAME":"STARLINK-2697","ECCENTRICITY":"0.00014130","CENTER_NAME":"EARTH","EPHEMERIS_TYPE":"0","INCLINATION":"53.0562","FILE":"3422805","LAUNCH_DATE":"2021-05-09","MEAN_MOTION_DDOT":"0.0000000000000","RCS_SIZE":"LARGE","BSTAR":"0.00077885000000","TLE_LINE2":"2 48474  53.0562  37.7723 0001413  72.6837 287.4306 15.06386064 55369","SEMIMAJOR_AXIS":"6925.391","MEAN_MOTION_DOT":"0.00011334","PERIAPSIS":"546.278","MEAN_MOTION":"15.06386064","DECAY_DATE":null,"TIME_SYSTEM":"UTC","OBJECT_ID":"2021-040AY","NORAD_CAT_ID":"48474","APOAPSIS":"548.235","PERIOD":"95.593","ELEMENT_SET_NO":"999","RA_OF_ASC_NODE":"37.7723","GP_ID":"202330524","TLE_LINE1":"1 48474U 21040AY  22120.48696567  .00011334  00000-0  77885-3 0  9992"},{"TLE_LINE2":"2 48475  53.0566  36.4271 0001872  53.7728 306.3434 15.06392041 54135","BSTAR":"-0.00011968000000","RCS_SIZE":"LARGE","TIME_SYSTEM":"UTC","DECAY_DATE":null,"MEAN_MOTION":"15.06392041","PERIAPSIS":"545.942","MEAN_MOTION_DOT":"-0.00002063","SEMIMAJOR_AXIS":"6925.373","APOAPSIS":"548.534","NORAD_CAT_ID":"48475","OBJECT_ID":"2021-040AZ","TLE_LINE1":"1 48475U 21040AZ  22120.78920435 -.00002063  00000-0 -11968-3 0  9991","GP_ID":"202390833","RA_OF_ASC_NODE":"36.4271","ELEMENT_SET_NO":"999","PERIOD":"95.593","OBJECT_TYPE":"PAYLOAD","MEAN_ANOMALY":"306.3434","MEAN_ELEMENT_THEORY":"SGP4","COUNTRY_CODE":"US","CLASSIFICATION_TYPE":"U","ARG_OF_PERICENTER":"53.7728","EPOCH":"2022-04-30T18:56:27.255840","REV_AT_EPOCH":"5413","ECCENTRICITY":"0.00018720","OBJECT_NAME":"STARLINK-2619","REF_FRAME":"TEME","SITE":"AFETR","MEAN_MOTION_DDOT":"0.0000000000000","LAUNCH_DATE":"2021-05-09","FILE":"3423346","INCLINATION":"53.0566","CENTER_NAME":"EARTH","EPHEMERIS_TYPE":"0"}];
